{
    "satellites": [
        {
            "name": "starlink351",
            "title": "Starlink-351 (G17-34)",
            "tle": [
                "1 71680C 26026Z   26049.88729167 -.01484700  00000+0 -27412-2 0   496",
                "2 71680  97.2733 103.4743 0001766  77.5618 160.6782 16.02744881    13"
            ],
            "stdMag": 5,
            "noradId": "71680",
            "tleUrl": "http://celestrak.org/NORAD/elements/supplemental/sup-gp.php?FILE=starlink&FORMAT=tle",
            "launchDate": "2026-02-11T17:11:29.000Z",
            "active": true,
            "batch": [
                {
                    "noradId": "71680",
                    "tle": [
                        "1 71680C 26026Z   26049.88729167 -.01484700  00000+0 -27412-2 0   496",
                        "2 71680  97.2733 103.4743 0001766  77.5618 160.6782 16.02744881    13"
                    ]
                },
                {
                    "noradId": "71679",
                    "tle": [
                        "1 71679C 26026Y   26049.88381944 -.01476000  00000+0 -26959-2 0   490",
                        "2 71679  97.2728 103.4716 0001772  84.8594 135.8482 16.02922774    16"
                    ]
                },
                {
                    "noradId": "71678",
                    "tle": [
                        "1 71678C 26026X   26049.88937500 -.01490300  00000+0 -27852-2 0   496",
                        "2 71678  97.2735 103.4757 0001740  76.8665 170.5582 16.02538574    11"
                    ]
                },
                {
                    "noradId": "71675",
                    "tle": [
                        "1 71675C 26026U   26049.88590278 -.01462900  00000+0 -26105-2 0   495",
                        "2 71675  97.2727 103.4760 0001692  81.1312 157.2086 16.03313012    17"
                    ]
                },
                {
                    "noradId": "71674",
                    "tle": [
                        "1 71674C 26026T   26049.89145833 -.01504000  00000+0 -28740-2 0   493",
                        "2 71674  97.2739 103.4756 0001745  83.1396 170.9813 16.02164486    15"
                    ]
                },
                {
                    "noradId": "71673",
                    "tle": [
                        "1 71673C 26026S   26049.89006944 -.01511600  00000+0 -29211-2 0   499",
                        "2 71673  97.2740 103.4727 0001711  86.9357 156.4012 16.01975479    16"
                    ]
                },
                {
                    "noradId": "71671",
                    "tle": [
                        "1 71671C 26026Q   26049.86090278 -.01520100  00000+0 -29488-2 0   498",
                        "2 71671  97.2743 103.4401 0001833  65.6162   7.3917 16.01918090    13"
                    ]
                },
                {
                    "noradId": "71668",
                    "tle": [
                        "1 71668C 26026M   26049.88381944 -.01542400  00000+0 -31434-2 0   490",
                        "2 71668  97.2750 103.4603 0001804  77.2830 116.5582 16.01067986    10"
                    ]
                },
                {
                    "noradId": "71667",
                    "tle": [
                        "1 71667C 26026L   26049.88937500 -.01548700  00000+0 -31904-2 0   495",
                        "2 71667  97.2751 103.4655 0001854  86.4044 136.9059 16.00882076    10"
                    ]
                },
                {
                    "noradId": "71663",
                    "tle": [
                        "1 71663C 26026G   26049.88381944 -.01570200  00000+0 -33610-2 0   492",
                        "2 71663  97.2754 103.4552 0001921  77.7231 103.4667 16.00219080    14"
                    ]
                }
            ]
        }
    ],
    "config": {}
}